OBJECT_NAME,OBJECT_ID,EPOCH,MEAN_MOTION,ECCENTRICITY,INCLINATION,RA_OF_ASC_NODE,ARG_OF_PERICENTER,MEAN_ANOMALY,EPHEMERIS_TYPE,CLASSIFICATION_TYPE,NORAD_CAT_ID,ELEMENT_SET_NO,REV_AT_EPOCH,BSTAR,MEAN_MOTION_DOT,MEAN_MOTION_DDOT
OCEANSAT-2,2009-051A,2026-07-12T20:42:47.380032,13.99656350,.0017193,98.2319,178.1511,160.2311,199.9525,0,U,35931,999,88292,-.58037E-4,-.122E-5,0
WORLDVIEW-2 (WV-2),2009-055A,2026-07-12T20:11:01.649184,14.37906539,.0005213,98.4757,266.9413,135.5583,224.6023,0,U,35946,999,87933,.25061E-4,.32E-6,0
SMOS,2009-059A,2026-07-12T11:39:50.972832,14.39735065,.00011315,98.4426,20.4501,95.7064,264.4253,0,U,36036,999,87709,.61644337E-4,.15E-5,0
YAOGAN-7,2009-069A,2026-07-12T16:17:40.886880,14.78034022,.0023657,98.0038,79.3848,319.8323,40.1138,0,U,36110,999,89339,.36187E-4,.209E-5,0
TANDEM-X,2010-030A,2026-07-07T11:29:58.986816,15.19154052,.0001887,97.4457,195.8973,94.3019,265.8431,0,U,36605,999,88972,.21566E-4,.386E-5,0
CARTOSAT-2B,2010-035A,2026-07-12T20:26:17.674080,14.78616337,.0012573,97.9947,244.2350,105.9355,254.3242,0,U,36795,999,86364,.78945E-4,.526E-5,0
YAOGAN-10,2010-038A,2026-07-12T21:26:10.279392,14.85422580,.0001593,97.8974,217.0920,82.8356,37.9590,0,U,36834,999,86102,.68297E-4,.534E-5,0
COSMO-SKYMED 4,2010-060A,2026-07-12T19:51:53.165088,14.82148930,.0001541,97.8893,17.0571,84.9992,275.1396,0,U,37216,999,84836,.5333E-4,.372E-5,0
RESOURCESAT-2,2011-015A,2026-07-12T18:41:23.402976,14.21605504,.0011455,98.7633,261.0423,177.8748,182.2479,0,U,37387,999,78981,.29391E-4,.2E-6,0
HAIYANG-2A,2011-043A,2026-07-12T21:21:11.757888,13.73481190,.0002846,99.3399,195.9788,37.1067,323.0277,0,U,37781,999,75018,-.19973E-4,-.62E-6,0
RASAT,2011-044D,2026-07-12T21:07:13.656288,14.68191366,.0021862,98.0580,284.8852,109.5449,359.9095,0,U,37791,999,79695,.5785E-4,.285E-5,0
SRMSAT,2011-058D,2026-07-12T05:43:42.959424,14.11580711,.0011854,19.9714,267.8421,118.8974,271.3920,0,U,37841,999,76136,.45879E-4,.35E-5,0
PLEIADES 1A,2011-076F,2026-07-12T20:43:15.617280,14.58545371,.0001734,98.1974,268.6202,80.5015,43.7584,0,U,38012,999,77573,.12781E-5,-.4E-6,0
ZIYUAN 1-02C (ZY 1-02C),2011-079A,2026-07-12T21:29:37.902912,14.38233724,.0005471,98.4068,260.6655,222.3992,248.1069,0,U,38038,999,76290,.30878E-4,.51E-6,0
ARIRANG-3 (KOMPSAT-3),2012-025B,2026-07-12T19:56:24.438624,14.62227906,.0006354,98.1183,150.8505,45.0572,315.1144,0,U,38338,999,75509,.49654E-4,.204E-5,0
EXACTVIEW-1 (ADS-1B),2012-039C,2026-07-12T19:10:55.167168,14.24991872,.001195,98.9801,311.7711,97.7769,262.4767,0,U,38709,999,72635,.33907E-4,.33E-6,0
SPOT 6,2012-047A,2026-07-12T20:31:19.064064,14.58537546,.0001125,98.2115,260.8618,82.6627,277.4700,0,U,38755,999,73679,.15714E-4,.27E-6,0
PLEIADES 1B,2012-068A,2026-07-12T19:19:17.780160,14.58533572,.0001614,98.1944,268.5029,78.7748,281.3633,0,U,39019,999,72458,.39547E-4,.138E-5,0
GOKTURK 2,2012-073A,2026-07-12T20:23:18.763872,14.75568393,.0000918,97.6815,29.9943,86.2117,273.9198,0,U,39030,999,72829,.11039E-3,.705E-5,0
LANDSAT 8,2013-008A,2026-07-12T20:16:15.845376,14.57110971,.0001328,98.2291,263.6738,94.3837,265.7514,0,U,39084,999,70163,.47205E-4,.167E-5,0
SARAL,2013-009A,2026-07-12T19:23:43.562976,14.32895411,.0001555,98.5554,20.0513,172.8072,187.3135,0,U,39086,999,69927,.31433E-4,.42E-6,0
GAOFEN-1,2013-018A,2026-07-12T21:10:48.348192,14.76515540,.0016876,97.9092,265.4266,178.5323,181.5940,0,U,39150,999,71203,-.22358E-5,-.66E-6,0
VNREDSAT 1,2013-021B,2026-07-12T20:10:23.722176,14.64881154,.0001643,97.9074,246.2705,80.8367,279.3023,0,U,39160,999,70404,.77569E-5,-.4E-7,0
ARIRANG-5 (KOMPSAT-5),2013-042A,2026-07-12T20:07:03.396864,15.04523453,.0005597,97.6214,20.1791,65.1043,295.0764,0,U,39227,999,70771,.54595E-4,.704E-5,0
SKYSAT-A,2013-066C,2026-07-12T15:40:01.594272,15.13106553,.002025,97.3804,242.2385,222.7187,137.2471,0,U,39418,999,69233,.91024E-4,.1555E-4,0
DUBAISAT-2,2013-066D,2026-07-12T21:50:41.876160,15.10364413,.000971,97.4573,183.3841,311.6192,48.4205,0,U,39419,999,69027,.10825E-3,.1715E-4,0
GPM-CORE,2014-009C,2026-07-12T20:17:16.327104,15.45026977,.0010995,64.9694,222.1623,261.3320,98.6575,0,U,39574,999,70177,.85869E-4,.3822E-4,0
SENTINEL-1A,2014-016A,2026-07-12T21:01:30.389088,14.59200098,.0001447,98.1784,201.0336,85.8860,274.2505,0,U,39634,999,65376,.12661E-4,.14E-6,0
KAZEOSAT 1,2014-024A,2026-07-12T19:59:32.178048,14.42036070,.0001244,98.3204,265.6407,82.4578,277.6753,0,U,39731,999,64225,-.96324E-5,-.74E-6,0
ALOS-2,2014-029A,2026-07-12T20:09:06.165216,14.79471808,.0001601,97.9226,290.6369,92.8363,267.3032,0,U,39766,999,65537,.16582E-3,.1187E-4,0
KAZEOSAT 2,2014-033A,2026-07-12T19:50:28.500864,14.85496633,.0007278,97.5400,32.0832,228.9037,131.1551,0,U,40010,999,65276,.3042E-5,-.24E-6,0
