OCEANSAT-2              
1 35931U 09051A   26193.86304838 -.00000122  00000+0 -58037-4 0  9990
2 35931  98.2319 178.1511 0017193 160.2311 199.9525 13.99656350882920
WORLDVIEW-2 (WV-2)      
1 35946U 09055A   26193.84099131  .00000032  00000+0  25061-4 0  9994
2 35946  98.4757 266.9413 0005213 135.5583 224.6023 14.37906539879337
SMOS                    
1 36036U 09059A   26193.48600663  .00000150  00000+0  61644-4 0  9995
2 36036  98.4426  20.4501 0001131  95.7064 264.4253 14.39735065877092
YAOGAN-7                
1 36110U 09069A   26193.67894545  .00000209  00000+0  36187-4 0  9993
2 36110  98.0038  79.3848 0023657 319.8323  40.1138 14.78034022893392
TANDEM-X                
1 36605U 10030A   26188.47915494  .00000386  00000+0  21566-4 0  9992
2 36605  97.4457 195.8973 0001887  94.3019 265.8431 15.19154052889726
CARTOSAT-2B             
1 36795U 10035A   26193.85159345  .00000526  00000+0  78945-4 0  9999
2 36795  97.9947 244.2350 0012573 105.9355 254.3242 14.78616337863648
YAOGAN-10               
1 36834U 10038A   26193.89317453  .00000534  00000+0  68297-4 0  9994
2 36834  97.8974 217.0920 0001593  82.8356  37.9590 14.85422580861020
COSMO-SKYMED 4          
1 37216U 10060A   26193.82769867  .00000372  00000+0  53330-4 0  9999
2 37216  97.8893  17.0571 0001541  84.9992 275.1396 14.82148930848360
RESOURCESAT-2           
1 37387U 11015A   26193.77874309  .00000020  00000+0  29391-4 0  9991
2 37387  98.7633 261.0423 0011455 177.8748 182.2479 14.21605504789816
HAIYANG-2A              
1 37781U 11043A   26193.88971942 -.00000062  00000+0 -19973-4 0  9996
2 37781  99.3399 195.9788 0002846  37.1067 323.0277 13.73481190750183
RASAT                   
1 37791U 11044D   26193.88001917  .00000285  00000+0  57850-4 0  9995
2 37791  98.0580 284.8852 0021862 109.5449 359.9095 14.68191366796958
SRMSAT                  
1 37841U 11058D   26193.23869166  .00000350  00000+0  45879-4 0  9994
2 37841  19.9714 267.8421 0011854 118.8974 271.3920 14.11580711761369
PLEIADES 1A             
1 38012U 11076F   26193.86337520 -.00000040  00000+0  12781-5 0  9992
2 38012  98.1974 268.6202 0001734  80.5015  43.7584 14.58545371775737
ZIYUAN 1-02C (ZY 1-02C) 
1 38038U 11079A   26193.89557758  .00000051  00000+0  30878-4 0  9990
2 38038  98.4068 260.6655 0005471 222.3992 248.1069 14.38233724762906
ARIRANG-3 (KOMPSAT-3)   
1 38338U 12025B   26193.83083841  .00000204  00000+0  49654-4 0  9998
2 38338  98.1183 150.8505 0006354  45.0572 315.1144 14.62227906755096
EXACTVIEW-1 (ADS-1B)    
1 38709U 12039C   26193.79924962  .00000033  00000+0  33907-4 0  9992
2 38709  98.9801 311.7711 0011950  97.7769 262.4767 14.24991872726350
SPOT 6                  
1 38755U 12047A   26193.85508176  .00000027  00000+0  15714-4 0  9993
2 38755  98.2115 260.8618 0001125  82.6627 277.4700 14.58537546736794
PLEIADES 1B             
1 39019U 12068A   26193.80506690  .00000138  00000+0  39547-4 0  9997
2 39019  98.1944 268.5029 0001614  78.7748 281.3633 14.58533572724589
GOKTURK 2               
1 39030U 12073A   26193.84952273  .00000705  00000+0  11039-3 0  9997
2 39030  97.6815  29.9943 0000918  86.2117 273.9198 14.75568393728290
LANDSAT 8               
1 39084U 13008A   26193.84462784  .00000167  00000+0  47205-4 0  9995
2 39084  98.2291 263.6738 0001328  94.3837 265.7514 14.57110971701633
SARAL                   
1 39086U 13009A   26193.80814309  .00000042  00000+0  31433-4 0  9996
2 39086  98.5554  20.0513 0001555 172.8072 187.3135 14.32895411699277
GAOFEN-1                
1 39150U 13018A   26193.88250403 -.00000066  00000+0 -22358-5 0  9990
2 39150  97.9092 265.4266 0016876 178.5323 181.5940 14.76515540712033
VNREDSAT 1              
1 39160U 13021B   26193.84055234 -.00000004  00000+0  77569-5 0  9991
2 39160  97.9074 246.2705 0001643  80.8367 279.3023 14.64881154704042
ARIRANG-5 (KOMPSAT-5)   
1 39227U 13042A   26193.83823376  .00000704  00000+0  54595-4 0  9996
2 39227  97.6214  20.1791 0005597  65.1043 295.0764 15.04523453707716
SKYSAT-A                
1 39418U 13066C   26193.65279623  .00001555  00000+0  91024-4 0  9997
2 39418  97.3804 242.2385 0020250 222.7187 137.2471 15.13106553692330
DUBAISAT-2              
1 39419U 13066D   26193.91020690  .00001715  00000+0  10825-3 0  9992
2 39419  97.4573 183.3841 0009710 311.6192  48.4205 15.10364413690276
GPM-CORE                
1 39574U 14009C   26193.84532786  .00003822  00000+0  85869-4 0  9990
2 39574  64.9694 222.1623 0010995 261.3320  98.6575 15.45026977701775
SENTINEL-1A             
1 39634U 14016A   26193.87604617  .00000014  00000+0  12661-4 0  9991
2 39634  98.1784 201.0336 0001447  85.8860 274.2505 14.59200098653760
KAZEOSAT 1              
1 39731U 14024A   26193.83301132 -.00000074  00000+0 -96324-5 0  9997
2 39731  98.3204 265.6407 0001244  82.4578 277.6753 14.42036070642259
ALOS-2                  
1 39766U 14029A   26193.83965469  .00001187  00000+0  16582-3 0  9999
2 39766  97.9226 290.6369 0001601  92.8363 267.3032 14.79471808655370
KAZEOSAT 2              
1 40010U 14033A   26193.82671876 -.00000024  00000+0  30420-5 0  9992
2 40010  97.5400  32.0832 0007278 228.9037 131.1551 14.85496633652767
